GLOBALSTAR M067         
1 32263U 07048A   24290.73048580 -.00000057  00000+0  30024-3 0  9991
2 32263  51.9752  28.2970 0001269 156.6938 359.8243 12.40657555779266
GLOBALSTAR M070         
1 32264U 07048B   24290.64752986 -.00000036  00000+0  37928-3 0  9991
2 32264  51.9727 150.4165 0000688  68.6257 326.7023 12.62303259782911
GLOBALSTAR M066         
1 32265U 07048C   24290.74748507 -.00000071  00000+0  18976-3 0  9998
2 32265  51.9702  15.6279 0000544 113.6064  30.3181 12.47001608785126
GLOBALSTAR M068         
1 32266U 07048D   24290.55139453 -.00000030  00000+0  40910-3 0  9990
2 32266  51.9899 324.9310 0000734 337.6098 187.3669 12.62803598786773
GLOBALSTAR M079         
1 37188U 10054A   24290.91336840 -.00000054  00000+0  28004-3 0  9994
2 37188  52.0021 160.3526 0001127  85.6137 287.9623 12.62266006645736
GLOBALSTAR M074         
1 37189U 10054B   24290.88128747 -.00000046  00000+0  32111-3 0  9991
2 37189  51.9999 159.8062 0000714  83.4751  27.0249 12.62257865646333
GLOBALSTAR M076         
1 37190U 10054C   24290.36769556 -.00000045  00000+0  32903-3 0  9993
2 37190  52.0013 161.5251 0000919 101.2193  69.9946 12.62271911645987
GLOBALSTAR M077         
1 37191U 10054D   24290.90346316 -.00000075  00000+0  15997-3 0  9996
2 37191  52.0055 116.6771 0000910  91.4091  56.6714 12.62265705646420
